UNKNOWN                 
1 85423U          26071.93875567  .00000051  00000+0 -30000-5 0  9992
2 85423  26.8486  69.4940 6673014 176.9082 256.7006  3.07280435    19
UNKNOWN                 
1 85448U          26072.61808446 -.00000384  00000+0  00000+0 0  9997
2 85448  41.4606 155.5047 0007289 313.6966 141.3444 15.68404032    03
UNKNOWN                 
1 87014U          26070.67201574  .00002863  00000+0  43695-2 0  9994
2 87014 100.4826  44.8939 0054109  23.2413 150.6521 13.52357822602932
UNKNOWN                 
1 87029U          26074.56018773  .00000776  00000+0  49662-3 0  9991
2 87029  98.7448 111.5045 0080451 350.3108   9.6504 14.04724775606033
UNKNOWN                 
1 87042U          26072.83240937  .00000970  00000+0  59820-3 0  9996
2 87042  98.7016 117.7291 0043638 196.5452 163.4296 14.07283103566779
UNKNOWN                 
1 87051U          26074.32681414  .00001904  00000+0  68785-3 0  9999
2 87051  65.7302  33.5558 0708584  98.8716 269.3175 13.46284614601049
UNKNOWN                 
1 87054U          26074.45886051  .00001821  00000+0  10332-2 0  9992
2 87054 100.0890 330.2714 0013691  88.5415 271.7320 14.11499404629405
UNKNOWN                 
1 87071U          26074.06670662  .00004020  00000+0  14664-2 0  9993
2 87071  61.2231 357.2147 0471721 284.1141  70.7910 13.86703327615288
UNKNOWN                 
1 87129U          26072.24235169  .00000215  00000+0  18864-2 0  9992
2 87129 102.2547 169.2773 0031946 267.9296  91.8110 12.42860265557912
UNKNOWN                 
1 87159U          26074.42021826  .00001439  00000+0  16691-2 0  9995
2 87159  90.3460  72.7355 0103921 343.6566  16.1250 13.66336204569348
UNKNOWN                 
1 87163U          26072.83657591  .00006780  00000+0  19781-2 0  9994
2 87163  65.6022  11.5132 0646096  23.8742 339.0900 13.64557294589943
UNKNOWN                 
1 87164U          26070.60616290  .00005806  00000+0  11550-2 0  9993
2 87164  65.2026  69.4162 0106526  13.1998 347.1850 14.59320930648730
