CCSDS_OMM_VERS = 2.0
CREATION_DATE  = 
ORIGINATOR     = 

OBJECT_NAME    = UNKNOWN
OBJECT_ID      = 
CENTER_NAME    = EARTH
REF_FRAME      = TEME
TIME_SYSTEM    = UTC
MEAN_ELEMENT_THEORY = SGP/SGP4

EPOCH          = 2026-03-12T22:31:48.489888
MEAN_MOTION    = 3.07280435
ECCENTRICITY   = .6673014
INCLINATION    = 26.8486
RA_OF_ASC_NODE = 69.4940
ARG_OF_PERICENTER = 176.9082
MEAN_ANOMALY   = 256.7006

EPHEMERIS_TYPE = 0
CLASSIFICATION_TYPE = U
NORAD_CAT_ID   = 85423
ELEMENT_SET_NO = 999
REV_AT_EPOCH   = 1
BSTAR          = -.3E-5
MEAN_MOTION_DOT = .51E-6
MEAN_MOTION_DDOT = 0

CCSDS_OMM_VERS = 2.0
CREATION_DATE  = 
ORIGINATOR     = 

OBJECT_NAME    = UNKNOWN
OBJECT_ID      = 
CENTER_NAME    = EARTH
REF_FRAME      = TEME
TIME_SYSTEM    = UTC
MEAN_ELEMENT_THEORY = SGP/SGP4

EPOCH          = 2026-03-13T14:50:02.497344
MEAN_MOTION    = 15.68404032
ECCENTRICITY   = .0007289
INCLINATION    = 41.4606
RA_OF_ASC_NODE = 155.5047
ARG_OF_PERICENTER = 313.6966
MEAN_ANOMALY   = 141.3444

EPHEMERIS_TYPE = 0
CLASSIFICATION_TYPE = U
NORAD_CAT_ID   = 85448
ELEMENT_SET_NO = 999
REV_AT_EPOCH   = 0
BSTAR          = 0
MEAN_MOTION_DOT = -.384E-5
MEAN_MOTION_DDOT = 0

CCSDS_OMM_VERS = 2.0
CREATION_DATE  = 
ORIGINATOR     = 

OBJECT_NAME    = UNKNOWN
OBJECT_ID      = 
CENTER_NAME    = EARTH
REF_FRAME      = TEME
TIME_SYSTEM    = UTC
MEAN_ELEMENT_THEORY = SGP/SGP4

EPOCH          = 2026-03-11T16:07:42.159936
MEAN_MOTION    = 13.52357822
ECCENTRICITY   = .0054109
INCLINATION    = 100.4826
RA_OF_ASC_NODE = 44.8939
ARG_OF_PERICENTER = 23.2413
MEAN_ANOMALY   = 150.6521

EPHEMERIS_TYPE = 0
CLASSIFICATION_TYPE = U
NORAD_CAT_ID   = 87014
ELEMENT_SET_NO = 999
REV_AT_EPOCH   = 60293
BSTAR          = .43695E-2
MEAN_MOTION_DOT = .2863E-4
MEAN_MOTION_DDOT = 0

CCSDS_OMM_VERS = 2.0
CREATION_DATE  = 
ORIGINATOR     = 

OBJECT_NAME    = UNKNOWN
OBJECT_ID      = 
CENTER_NAME    = EARTH
REF_FRAME      = TEME
TIME_SYSTEM    = UTC
MEAN_ELEMENT_THEORY = SGP/SGP4

EPOCH          = 2026-03-15T13:26:40.219872
MEAN_MOTION    = 14.04724775
ECCENTRICITY   = .0080451
INCLINATION    = 98.7448
RA_OF_ASC_NODE = 111.5045
ARG_OF_PERICENTER = 350.3108
MEAN_ANOMALY   = 9.6504

EPHEMERIS_TYPE = 0
CLASSIFICATION_TYPE = U
NORAD_CAT_ID   = 87029
ELEMENT_SET_NO = 999
REV_AT_EPOCH   = 60603
BSTAR          = .49662E-3
MEAN_MOTION_DOT = .776E-5
MEAN_MOTION_DDOT = 0

CCSDS_OMM_VERS = 2.0
CREATION_DATE  = 
ORIGINATOR     = 

OBJECT_NAME    = UNKNOWN
OBJECT_ID      = 
CENTER_NAME    = EARTH
REF_FRAME      = TEME
TIME_SYSTEM    = UTC
MEAN_ELEMENT_THEORY = SGP/SGP4

EPOCH          = 2026-03-13T19:58:40.169568
MEAN_MOTION    = 14.07283103
ECCENTRICITY   = .0043638
INCLINATION    = 98.7016
RA_OF_ASC_NODE = 117.7291
ARG_OF_PERICENTER = 196.5452
MEAN_ANOMALY   = 163.4296

EPHEMERIS_TYPE = 0
CLASSIFICATION_TYPE = U
NORAD_CAT_ID   = 87042
ELEMENT_SET_NO = 999
REV_AT_EPOCH   = 56677
BSTAR          = .5982E-3
MEAN_MOTION_DOT = .97E-5
MEAN_MOTION_DDOT = 0

CCSDS_OMM_VERS = 2.0
CREATION_DATE  = 
ORIGINATOR     = 

OBJECT_NAME    = UNKNOWN
OBJECT_ID      = 
CENTER_NAME    = EARTH
REF_FRAME      = TEME
TIME_SYSTEM    = UTC
MEAN_ELEMENT_THEORY = SGP/SGP4

EPOCH          = 2026-03-15T07:50:36.741696
MEAN_MOTION    = 13.46284614
ECCENTRICITY   = .0708584
INCLINATION    = 65.7302
RA_OF_ASC_NODE = 33.5558
ARG_OF_PERICENTER = 98.8716
MEAN_ANOMALY   = 269.3175

EPHEMERIS_TYPE = 0
CLASSIFICATION_TYPE = U
NORAD_CAT_ID   = 87051
ELEMENT_SET_NO = 999
REV_AT_EPOCH   = 60104
BSTAR          = .68785E-3
MEAN_MOTION_DOT = .1904E-4
MEAN_MOTION_DDOT = 0

CCSDS_OMM_VERS = 2.0
CREATION_DATE  = 
ORIGINATOR     = 

OBJECT_NAME    = UNKNOWN
OBJECT_ID      = 
CENTER_NAME    = EARTH
REF_FRAME      = TEME
TIME_SYSTEM    = UTC
MEAN_ELEMENT_THEORY = SGP/SGP4

EPOCH          = 2026-03-15T11:00:45.548064
MEAN_MOTION    = 14.11499404
ECCENTRICITY   = .0013691
INCLINATION    = 100.0890
RA_OF_ASC_NODE = 330.2714
ARG_OF_PERICENTER = 88.5415
MEAN_ANOMALY   = 271.7320

EPHEMERIS_TYPE = 0
CLASSIFICATION_TYPE = U
NORAD_CAT_ID   = 87054
ELEMENT_SET_NO = 999
REV_AT_EPOCH   = 62940
BSTAR          = .10332E-2
MEAN_MOTION_DOT = .1821E-4
MEAN_MOTION_DDOT = 0

CCSDS_OMM_VERS = 2.0
CREATION_DATE  = 
ORIGINATOR     = 

OBJECT_NAME    = UNKNOWN
OBJECT_ID      = 
CENTER_NAME    = EARTH
REF_FRAME      = TEME
TIME_SYSTEM    = UTC
MEAN_ELEMENT_THEORY = SGP/SGP4

EPOCH          = 2026-03-15T01:36:03.451968
MEAN_MOTION    = 13.86703327
ECCENTRICITY   = .0471721
INCLINATION    = 61.2231
RA_OF_ASC_NODE = 357.2147
ARG_OF_PERICENTER = 284.1141
MEAN_ANOMALY   = 70.7910

EPHEMERIS_TYPE = 0
CLASSIFICATION_TYPE = U
NORAD_CAT_ID   = 87071
ELEMENT_SET_NO = 999
REV_AT_EPOCH   = 61528
BSTAR          = .14664E-2
MEAN_MOTION_DOT = .402E-4
MEAN_MOTION_DDOT = 0

CCSDS_OMM_VERS = 2.0
CREATION_DATE  = 
ORIGINATOR     = 

OBJECT_NAME    = UNKNOWN
OBJECT_ID      = 
CENTER_NAME    = EARTH
REF_FRAME      = TEME
TIME_SYSTEM    = UTC
MEAN_ELEMENT_THEORY = SGP/SGP4

EPOCH          = 2026-03-13T05:48:59.186016
MEAN_MOTION    = 12.42860265
ECCENTRICITY   = .0031946
INCLINATION    = 102.2547
RA_OF_ASC_NODE = 169.2773
ARG_OF_PERICENTER = 267.9296
MEAN_ANOMALY   = 91.8110

EPHEMERIS_TYPE = 0
CLASSIFICATION_TYPE = U
NORAD_CAT_ID   = 87129
ELEMENT_SET_NO = 999
REV_AT_EPOCH   = 55791
BSTAR          = .18864E-2
MEAN_MOTION_DOT = .215E-5
MEAN_MOTION_DDOT = 0

CCSDS_OMM_VERS = 2.0
CREATION_DATE  = 
ORIGINATOR     = 

OBJECT_NAME    = UNKNOWN
OBJECT_ID      = 
CENTER_NAME    = EARTH
REF_FRAME      = TEME
TIME_SYSTEM    = UTC
MEAN_ELEMENT_THEORY = SGP/SGP4

EPOCH          = 2026-03-15T10:05:06.857664
MEAN_MOTION    = 13.66336204
ECCENTRICITY   = .0103921
INCLINATION    = 90.3460
RA_OF_ASC_NODE = 72.7355
ARG_OF_PERICENTER = 343.6566
MEAN_ANOMALY   = 16.1250

EPHEMERIS_TYPE = 0
CLASSIFICATION_TYPE = U
NORAD_CAT_ID   = 87159
ELEMENT_SET_NO = 999
REV_AT_EPOCH   = 56934
BSTAR          = .16691E-2
MEAN_MOTION_DOT = .1439E-4
MEAN_MOTION_DDOT = 0

CCSDS_OMM_VERS = 2.0
CREATION_DATE  = 
ORIGINATOR     = 

OBJECT_NAME    = UNKNOWN
OBJECT_ID      = 
CENTER_NAME    = EARTH
REF_FRAME      = TEME
TIME_SYSTEM    = UTC
MEAN_ELEMENT_THEORY = SGP/SGP4

EPOCH          = 2026-03-13T20:04:40.158624
MEAN_MOTION    = 13.64557294
ECCENTRICITY   = .0646096
INCLINATION    = 65.6022
RA_OF_ASC_NODE = 11.5132
ARG_OF_PERICENTER = 23.8742
MEAN_ANOMALY   = 339.0900

EPHEMERIS_TYPE = 0
CLASSIFICATION_TYPE = U
NORAD_CAT_ID   = 87163
ELEMENT_SET_NO = 999
REV_AT_EPOCH   = 58994
BSTAR          = .19781E-2
MEAN_MOTION_DOT = .678E-4
MEAN_MOTION_DDOT = 0

CCSDS_OMM_VERS = 2.0
CREATION_DATE  = 
ORIGINATOR     = 

OBJECT_NAME    = UNKNOWN
OBJECT_ID      = 
CENTER_NAME    = EARTH
REF_FRAME      = TEME
TIME_SYSTEM    = UTC
MEAN_ELEMENT_THEORY = SGP/SGP4

EPOCH          = 2026-03-11T14:32:52.474560
MEAN_MOTION    = 14.59320930
ECCENTRICITY   = .0106526
INCLINATION    = 65.2026
RA_OF_ASC_NODE = 69.4162
ARG_OF_PERICENTER = 13.1998
MEAN_ANOMALY   = 347.1850

EPHEMERIS_TYPE = 0
CLASSIFICATION_TYPE = U
NORAD_CAT_ID   = 87164
ELEMENT_SET_NO = 999
REV_AT_EPOCH   = 64873
BSTAR          = .1155E-2
MEAN_MOTION_DOT = .5806E-4
MEAN_MOTION_DDOT = 0

